{
    "links": {
        "self": "http://www.neowsapp.com/rest/v1/neo/3653680?api_key=iIulBulltgU6a56xZRHN4H3l9WmuAYTsLGpBGhQ2"
    },
    "id": "3653680",
    "neo_reference_id": "3653680",
    "name": "(2013 VP12)",
    "designation": "2013 VP12",
    "nasa_jpl_url": "http://ssd.jpl.nasa.gov/sbdb.cgi?sstr=3653680",
    "absolute_magnitude_h": 24.4,
    "estimated_diameter": {
        "kilometers": {
            "estimated_diameter_min": 0.0350392641,
            "estimated_diameter_max": 0.0783501764
        },
        "meters": {
            "estimated_diameter_min": 35.0392641108,
            "estimated_diameter_max": 78.3501764334
        },
        "miles": {
            "estimated_diameter_min": 0.0217723826,
            "estimated_diameter_max": 0.0486845275
        },
        "feet": {
            "estimated_diameter_min": 114.9582192654,
            "estimated_diameter_max": 257.0543928497
        }
    },
    "is_potentially_hazardous_asteroid": false,
    "close_approach_data": [
        {
            "close_approach_date": "2013-11-29",
            "close_approach_date_full": "2013-Nov-29 09:16",
            "epoch_date_close_approach": 1385716560000,
            "relative_velocity": {
                "kilometers_per_second": "9.76238049",
                "kilometers_per_hour": "35144.5697641227",
                "miles_per_hour": "21837.4689181573"
            },
            "miss_distance": {
                "astronomical": "0.0691344527",
                "lunar": "26.8933021003",
                "kilometers": "10342366.867535749",
                "miles": "6426448.7730973762"
            },
            "orbiting_body": "Earth"
        }
    ],
    "orbital_data": {
        "orbit_id": "9",
        "orbit_determination_date": "2017-04-06 08:43:43",
        "first_observation_date": "2013-11-09",
        "last_observation_date": "2013-12-06",
        "data_arc_in_days": 27,
        "observations_used": 32,
        "orbit_uncertainty": "8",
        "minimum_orbit_intersection": ".0622533",
        "jupiter_tisserand_invariant": "2.991",
        "epoch_osculation": "2456609.5",
        "eccentricity": ".6371519924364984",
        "semi_major_axis": "2.779254878449649",
        "inclination": "6.772102326883873",
        "ascending_node_longitude": "230.3236256361222",
        "orbital_period": "1692.353141235713",
        "perihelion_distance": "1.008447095156597",
        "perihelion_argument": "220.4601322304618",
        "aphelion_distance": "4.550062661742702",
        "perihelion_time": "2456643.934581971291",
        "mean_anomaly": "352.6750220107056",
        "mean_motion": ".2127215598377636",
        "equinox": "J2000",
        "orbit_class": {
            "orbit_class_type": "APO",
            "orbit_class_description": "Near-Earth asteroid orbits which cross the Earth’s orbit similar to that of 1862 Apollo",
            "orbit_class_range": "a (semi-major axis) > 1.0 AU; q (perihelion) < 1.017 AU"
        }
    },
    "is_sentry_object": false
}